COSMOS 2251 DEB         
1 37326U 93036BKS 17345.70669926  .00000325  00000-0  87303-4 0  9992
2 37326  74.0291  97.3009 0068767 233.1954 126.2885 14.50880699430161
